{
  "type": "FeatureCollection",
  "features": [
    {
      "type": "Feature",
      "properties": {
        "norad_id": 40069,
        "name": "METEOR-M 2",
        "group": "weather",
        "lat": 5.160789830252272,
        "lon": -41.58415275279646,
        "alt_km": 825.4810814701459,
        "timestamp": "2025-12-07T09:35:09.434988+00:00",
        "meta_object_name": "METEOR-M 2",
        "meta_object_id": "2014-037A",
        "meta_epoch": "2025-12-06T21:44:06.949536",
        "meta_mean_motion": 14.21382993,
        "meta_eccentricity": 0.00048148,
        "meta_inclination": 98.4896,
        "meta_ra_of_asc_node": 318.714,
        "meta_arg_of_pericenter": 228.7202,
        "meta_mean_anomaly": 131.3562,
        "meta_ephemeris_type": 0,
        "meta_classification_type": "U",
        "meta_norad_cat_id": 40069,
        "meta_element_set_no": 999,
        "meta_rev_at_epoch": 59200,
        "meta_bstar": 0.00014578631,
        "meta_mean_motion_dot": 2.76e-06,
        "meta_mean_motion_ddot": 0,
        "tle_line1": "1 40069U 14037A   25340.90563599  .00000276  00000+0  14579-3 0  9997",
        "tle_line2": "2 40069  98.4896 318.7140 0004814 228.7202 131.3562 14.21382993592008"
      },
      "geometry": {
        "type": "Point",
        "coordinates": [
          -41.58415275279646,
          5.160789830252272
        ]
      }
    },
    {
      "type": "Feature",
      "properties": {
        "norad_id": 40267,
        "name": "HIMAWARI-8",
        "group": "weather",
        "lat": -0.02900375667607498,
        "lon": 0.8868909447669289,
        "alt_km": 35785.18429455172,
        "timestamp": "2025-12-07T09:35:09.435000+00:00",
        "meta_object_name": "HIMAWARI-8",
        "meta_object_id": "2014-060A",
        "meta_epoch": "2025-12-06T21:10:58.488960",
        "meta_mean_motion": 1.00269665,
        "meta_eccentricity": 0.0001342,
        "meta_inclination": 0.0518,
        "meta_ra_of_asc_node": 138.3213,
        "meta_arg_of_pericenter": 148.6777,
        "meta_mean_anomaly": 247.3303,
        "meta_ephemeris_type": 0,
        "meta_classification_type": "U",
        "meta_norad_cat_id": 40267,
        "meta_element_set_no": 999,
        "meta_rev_at_epoch": 4083,
        "meta_bstar": 0,
        "meta_mean_motion_dot": -2.7e-06,
        "meta_mean_motion_ddot": 0,
        "tle_line1": "1 40267U 14060A   25340.88262140 -.00000270  00000+0  00000+0 0  9993",
        "tle_line2": "2 40267   0.0518 138.3213 0001342 148.6777 247.3303  1.00269665 40838"
      },
      "geometry": {
        "type": "Point",
        "coordinates": [
          0.8868909447669289,
          -0.02900375667607498
        ]
      }
    },
    {
      "type": "Feature",
      "properties": {
        "norad_id": 40367,
        "name": "FENGYUN 2G",
        "group": "weather",
        "lat": -4.672018424716578,
        "lon": -40.19674322651506,
        "alt_km": 35779.55146704146,
        "timestamp": "2025-12-07T09:35:09.435013+00:00",
        "meta_object_name": "FENGYUN 2G",
        "meta_object_id": "2014-090A",
        "meta_epoch": "2025-12-06T19:16:31.950048",
        "meta_mean_motion": 1.00266143,
        "meta_eccentricity": 0.00031469,
        "meta_inclination": 5.1526,
        "meta_ra_of_asc_node": 75.1659,
        "meta_arg_of_pericenter": 196.1642,
        "meta_mean_anomaly": 193.3036,
        "meta_ephemeris_type": 0,
        "meta_classification_type": "U",
        "meta_norad_cat_id": 40367,
        "meta_element_set_no": 999,
        "meta_rev_at_epoch": 4007,
        "meta_bstar": 0,
        "meta_mean_motion_dot": -2.98e-06,
        "meta_mean_motion_ddot": 0,
        "tle_line1": "1 40367U 14090A   25340.80314757 -.00000298  00000+0  00000+0 0  9991",
        "tle_line2": "2 40367   5.1526  75.1659 0003146 196.1642 193.3036  1.00266143 40076"
      },
      "geometry": {
        "type": "Point",
        "coordinates": [
          -40.19674322651506,
          -4.672018424716578
        ]
      }
    },
    {
      "type": "Feature",
      "properties": {
        "norad_id": 40732,
        "name": "METEOSAT-11 (MSG-4)",
        "group": "weather",
        "lat": 1.0152362799278933,
        "lon": -130.3789748039949,
        "alt_km": 35784.39267981625,
        "timestamp": "2025-12-07T09:35:09.435029+00:00",
        "meta_object_name": "METEOSAT-11 (MSG-4)",
        "meta_object_id": "2015-034A",
        "meta_epoch": "2025-12-06T18:50:49.412832",
        "meta_mean_motion": 1.00265622,
        "meta_eccentricity": 9.809e-05,
        "meta_inclination": 2.7205,
        "meta_ra_of_asc_node": 72.0191,
        "meta_arg_of_pericenter": 119.173,
        "meta_mean_anomaly": 176.7276,
        "meta_ephemeris_type": 0,
        "meta_classification_type": "U",
        "meta_norad_cat_id": 40732,
        "meta_element_set_no": 999,
        "meta_rev_at_epoch": 528,
        "meta_bstar": 0,
        "meta_mean_motion_dot": 6.6e-07,
        "meta_mean_motion_ddot": 0,
        "tle_line1": "1 40732U 15034A   25340.78529413  .00000066  00000+0  00000+0 0  9992",
        "tle_line2": "2 40732   2.7205  72.0191 0000980 119.1730 176.7276  1.00265622  5288"
      },
      "geometry": {
        "type": "Point",
        "coordinates": [
          -130.3789748039949,
          1.0152362799278933
        ]
      }
    },
    {
      "type": "Feature",
      "properties": {
        "norad_id": 41105,
        "name": "ELEKTRO-L 2",
        "group": "weather",
        "lat": 4.54209065735817,
        "lon": -154.1703846561606,
        "alt_km": 35779.10812982857,
        "timestamp": "2025-12-07T09:35:09.435041+00:00",
        "meta_object_name": "ELEKTRO-L 2",
        "meta_object_id": "2015-074A",
        "meta_epoch": "2025-12-06T01:36:40.788864",
        "meta_mean_motion": 1.00271999,
        "meta_eccentricity": 0.00039355,
        "meta_inclination": 6.208,
        "meta_ra_of_asc_node": 72.9071,
        "meta_arg_of_pericenter": 200.4894,
        "meta_mean_anomaly": 171.3714,
        "meta_ephemeris_type": 0,
        "meta_classification_type": "U",
        "meta_norad_cat_id": 41105,
        "meta_element_set_no": 999,
        "meta_rev_at_epoch": 3657,
        "meta_bstar": 0,
        "meta_mean_motion_dot": -1.12e-06,
        "meta_mean_motion_ddot": 0,
        "tle_line1": "1 41105U 15074A   25340.06713876 -.00000112  00000+0  00000+0 0  9993",
        "tle_line2": "2 41105   6.2080  72.9071 0003935 200.4894 171.3714  1.00271999 36575"
      },
      "geometry": {
        "type": "Point",
        "coordinates": [
          -154.1703846561606,
          4.54209065735817
        ]
      }
    },
    {
      "type": "Feature",
      "properties": {
        "norad_id": 41752,
        "name": "INSAT-3DR",
        "group": "weather",
        "lat": -0.05201827278715032,
        "lon": -65.71271606615818,
        "alt_km": 35730.52797982843,
        "timestamp": "2025-12-07T09:35:09.435053+00:00",
        "meta_object_name": "INSAT-3DR",
        "meta_object_id": "2016-054A",
        "meta_epoch": "2025-12-06T20:52:00.304608",
        "meta_mean_motion": 1.00269869,
        "meta_eccentricity": 0.00145712,
        "meta_inclination": 0.0775,
        "meta_ra_of_asc_node": 87.4466,
        "meta_arg_of_pericenter": 182.2729,
        "meta_mean_anomaly": 193.1991,
        "meta_ephemeris_type": 0,
        "meta_classification_type": "U",
        "meta_norad_cat_id": 41752,
        "meta_element_set_no": 999,
        "meta_rev_at_epoch": 3389,
        "meta_bstar": 0,
        "meta_mean_motion_dot": -7.1e-07,
        "meta_mean_motion_ddot": 0,
        "tle_line1": "1 41752U 16054A   25340.86944797 -.00000071  00000+0  00000+0 0  9990",
        "tle_line2": "2 41752   0.0775  87.4466 0014571 182.2729 193.1991  1.00269869 33891"
      },
      "geometry": {
        "type": "Point",
        "coordinates": [
          -65.71271606615818,
          -0.05201827278715032
        ]
      }
    },
    {
      "type": "Feature",
      "properties": {
        "norad_id": 41836,
        "name": "HIMAWARI-9",
        "group": "weather",
        "lat": -0.0038175583013199785,
        "lon": 0.9805257917934856,
        "alt_km": 35784.084830415086,
        "timestamp": "2025-12-07T09:35:09.435066+00:00",
        "meta_object_name": "HIMAWARI-9",
        "meta_object_id": "2016-064A",
        "meta_epoch": "2025-12-06T14:20:08.226816",
        "meta_mean_motion": 1.00270611,
        "meta_eccentricity": 0.00017155,
        "meta_inclination": 0.014,
        "meta_ra_of_asc_node": 61.0764,
        "meta_arg_of_pericenter": 229.5948,
        "meta_mean_anomaly": 140.757,
        "meta_ephemeris_type": 0,
        "meta_classification_type": "U",
        "meta_norad_cat_id": 41836,
        "meta_element_set_no": 999,
        "meta_rev_at_epoch": 3327,
        "meta_bstar": 0,
        "meta_mean_motion_dot": -2.68e-06,
        "meta_mean_motion_ddot": 0,
        "tle_line1": "1 41836U 16064A   25340.59731744 -.00000268  00000+0  00000+0 0  9998",
        "tle_line2": "2 41836   0.0140  61.0764 0001715 229.5948 140.7570  1.00270611 33273"
      },
      "geometry": {
        "type": "Point",
        "coordinates": [
          0.9805257917934856,
          -0.0038175583013199785
        ]
      }
    }
  ]
}